[{"OBJECT_NAME":"GEOSCAN 5 (RS92S5)","OBJECT_ID":"2025-155R","EPOCH":"2026-03-09T22:01:07.273920","MEAN_MOTION":15.30265233,"ECCENTRICITY":0.00070849,"INCLINATION":97.4462,"RA_OF_ASC_NODE":37.7456,"ARG_OF_PERICENTER":154.5846,"MEAN_ANOMALY":205.5745,"EPHEMERIS_TYPE":0,"CLASSIFICATION_TYPE":"U","NORAD_CAT_ID":64891,"ELEMENT_SET_NO":999,"REV_AT_EPOCH":6562,"BSTAR":0.00068639307,"MEAN_MOTION_DOT":0.00020065,"MEAN_MOTION_DDOT":0},{"OBJECT_NAME":"STARLINK-35016","OBJECT_ID":"2025-189U","EPOCH":"2026-03-09T16:13:17.531904","MEAN_MOTION":15.30200147,"ECCENTRICITY":0.00010914,"INCLINATION":53.1572,"RA_OF_ASC_NODE":206.8759,"ARG_OF_PERICENTER":52.1383,"MEAN_ANOMALY":307.9716,"EPHEMERIS_TYPE":0,"CLASSIFICATION_TYPE":"U","NORAD_CAT_ID":65341,"ELEMENT_SET_NO":999,"REV_AT_EPOCH":3105,"BSTAR":0.001441323,"MEAN_MOTION_DOT":0.00042574,"MEAN_MOTION_DDOT":0}]
